ONEWEB-0392             
1 50472U 21132D   25288.79393958  .00000160  00000+0  37861-3 0  9999
2 50472  87.9105  54.4330 0001683  85.7030 274.4294 13.17648408185930
ONEWEB-0393             
1 50473U 21132E   25289.07083178  .00000041  00000+0  71984-4 0  9995
2 50473  87.9110  54.3986 0001678  92.7510 267.3813 13.17649802185968
ONEWEB-0394             
1 50474U 21132F   25289.00313961 -.00000143  00000+0 -39649-3 0  9991
2 50474  87.9229  23.9294 0001720  96.1545 263.9783 13.18685430189418
ONEWEB-0395             
1 50475U 21132G   25289.09368051  .00000040  00000+0  77221-4 0  9994
2 50475  87.8818  69.6911 0001876  91.6370 268.4972 13.11415106183725
ONEWEB-0396             
1 50476U 21132H   25288.99653567 -.00000071  00000+0 -21348-3 0  9996
2 50476  87.9231  23.9433 0001749  98.0897 262.0433 13.18685703189459
ONEWEB-0397             
1 50477U 21132J   25289.01137705  .00000068  00000+0  14080-3 0  9991
2 50477  87.9231  23.9411 0001596  98.9249 261.2063 13.18684099189431
ONEWEB-0398             
1 50478U 21132K   25289.13775965  .00000184  00000+0  48397-3 0  9998
2 50478  87.8824  69.6503 0002075  94.8926 265.2439 13.11417055183623
ONEWEB-0399             
1 50479U 21132L   25288.81900300 -.00000263  00000+0 -77750-3 0  9991
2 50479  87.8816  69.7326 0001381  76.3899 283.7382 13.11419306183579
ONEWEB-0400             
1 50480U 21132M   25288.98993689  .00000023  00000+0  24664-4 0  9992
2 50480  87.9227  23.9349 0002002 101.6537 258.4820 13.18684611189423
ONEWEB-0401             
1 50481U 21132N   25288.95860093  .00000033  00000+0  50019-4 0  9996
2 50481  87.9233  23.9388 0001656 105.1113 255.0202 13.18684858189427
ONEWEB-0402             
1 50482U 21132P   25288.31529314 -.00000003  00000+0 -39354-4 0  9993
2 50482  87.9227  24.0588 0001291 117.6621 242.4642 13.18684517189365
ONEWEB-0403             
1 50483U 21132Q   25289.02292216  .00000100  00000+0  22014-3 0  9991
2 50483  87.9234  23.9386 0001813  97.9083 262.2255 13.18683028189412
ONEWEB-0404             
1 50484U 21132R   25289.10554200 -.00000466  00000+0 -13520-2 0  9993
2 50484  87.8823  69.6839 0001562  81.9822 278.1483 13.11413591183705
ONEWEB-0405             
1 50485U 21132S   25288.96188924 -.00000221  00000+0 -59383-3 0  9990
2 50485  87.9233  23.9354 0001493 103.4055 256.7243 13.18686340189802
ONEWEB-0406             
1 50486U 21132T   25289.02788170  .00000307  00000+0  74670-3 0  9997
2 50486  87.9233  23.9463 0002123  89.0817 271.0559 13.18685143189440
ONEWEB-0407             
1 50487U 21132U   25289.02127296  .00000123  00000+0  28044-3 0  9994
2 50487  87.9232  23.9317 0001772 106.1868 253.9459 13.18683011189387
ONEWEB-0409             
1 50488U 21132V   25289.10384812 -.00000358  00000+0 -10446-2 0  9991
2 50488  87.8834  69.6452 0001824  87.6764 272.4573 13.11414201183594
