[{"OBJECT_NAME":"ONEWEB-0392","OBJECT_ID":"2021-132D","EPOCH":"2025-10-15T19:03:16.379712","MEAN_MOTION":13.17648408,"ECCENTRICITY":0.00016832,"INCLINATION":87.9105,"RA_OF_ASC_NODE":54.433,"ARG_OF_PERICENTER":85.703,"MEAN_ANOMALY":274.4294,"EPHEMERIS_TYPE":0,"CLASSIFICATION_TYPE":"U","NORAD_CAT_ID":50472,"ELEMENT_SET_NO":999,"REV_AT_EPOCH":18593,"BSTAR":0.00037860794,"MEAN_MOTION_DOT":1.6e-6,"MEAN_MOTION_DDOT":0},{"OBJECT_NAME":"ONEWEB-0393","OBJECT_ID":"2021-132E","EPOCH":"2025-10-16T01:41:59.865792","MEAN_MOTION":13.17649802,"ECCENTRICITY":0.0001678,"INCLINATION":87.911,"RA_OF_ASC_NODE":54.3986,"ARG_OF_PERICENTER":92.751,"MEAN_ANOMALY":267.3813,"EPHEMERIS_TYPE":0,"CLASSIFICATION_TYPE":"U","NORAD_CAT_ID":50473,"ELEMENT_SET_NO":999,"REV_AT_EPOCH":18596,"BSTAR":7.1984e-5,"MEAN_MOTION_DOT":4.1e-7,"MEAN_MOTION_DDOT":0},{"OBJECT_NAME":"ONEWEB-0394","OBJECT_ID":"2021-132F","EPOCH":"2025-10-16T00:04:31.262304","MEAN_MOTION":13.1868543,"ECCENTRICITY":0.000172,"INCLINATION":87.9229,"RA_OF_ASC_NODE":23.9294,"ARG_OF_PERICENTER":96.1545,"MEAN_ANOMALY":263.9783,"EPHEMERIS_TYPE":0,"CLASSIFICATION_TYPE":"U","NORAD_CAT_ID":50474,"ELEMENT_SET_NO":999,"REV_AT_EPOCH":18941,"BSTAR":-0.00039649,"MEAN_MOTION_DOT":-1.43e-6,"MEAN_MOTION_DDOT":0},{"OBJECT_NAME":"ONEWEB-0395","OBJECT_ID":"2021-132G","EPOCH":"2025-10-16T02:14:53.996064","MEAN_MOTION":13.11415106,"ECCENTRICITY":0.0001876,"INCLINATION":87.8818,"RA_OF_ASC_NODE":69.6911,"ARG_OF_PERICENTER":91.637,"MEAN_ANOMALY":268.4972,"EPHEMERIS_TYPE":0,"CLASSIFICATION_TYPE":"U","NORAD_CAT_ID":50475,"ELEMENT_SET_NO":999,"REV_AT_EPOCH":18372,"BSTAR":7.7221e-5,"MEAN_MOTION_DOT":4.0e-7,"MEAN_MOTION_DDOT":0},{"OBJECT_NAME":"ONEWEB-0396","OBJECT_ID":"2021-132H","EPOCH":"2025-10-15T23:55:00.681888","MEAN_MOTION":13.18685703,"ECCENTRICITY":0.0001749,"INCLINATION":87.9231,"RA_OF_ASC_NODE":23.9433,"ARG_OF_PERICENTER":98.0897,"MEAN_ANOMALY":262.0433,"EPHEMERIS_TYPE":0,"CLASSIFICATION_TYPE":"U","NORAD_CAT_ID":50476,"ELEMENT_SET_NO":999,"REV_AT_EPOCH":18945,"BSTAR":-0.00021348,"MEAN_MOTION_DOT":-7.1e-7,"MEAN_MOTION_DDOT":0},{"OBJECT_NAME":"ONEWEB-0397","OBJECT_ID":"2021-132J","EPOCH":"2025-10-16T00:16:22.977120","MEAN_MOTION":13.18684099,"ECCENTRICITY":0.0001596,"INCLINATION":87.9231,"RA_OF_ASC_NODE":23.9411,"ARG_OF_PERICENTER":98.9249,"MEAN_ANOMALY":261.2063,"EPHEMERIS_TYPE":0,"CLASSIFICATION_TYPE":"U","NORAD_CAT_ID":50477,"ELEMENT_SET_NO":999,"REV_AT_EPOCH":18943,"BSTAR":0.0001408,"MEAN_MOTION_DOT":6.8e-7,"MEAN_MOTION_DDOT":0},{"OBJECT_NAME":"ONEWEB-0398","OBJECT_ID":"2021-132K","EPOCH":"2025-10-16T03:18:22.433760","MEAN_MOTION":13.11417055,"ECCENTRICITY":0.0002075,"INCLINATION":87.8824,"RA_OF_ASC_NODE":69.6503,"ARG_OF_PERICENTER":94.8926,"MEAN_ANOMALY":265.2439,"EPHEMERIS_TYPE":0,"CLASSIFICATION_TYPE":"U","NORAD_CAT_ID":50478,"ELEMENT_SET_NO":999,"REV_AT_EPOCH":18362,"BSTAR":0.00048397,"MEAN_MOTION_DOT":1.84e-6,"MEAN_MOTION_DDOT":0},{"OBJECT_NAME":"ONEWEB-0399","OBJECT_ID":"2021-132L","EPOCH":"2025-10-15T19:39:21.859200","MEAN_MOTION":13.11419306,"ECCENTRICITY":0.00013811,"INCLINATION":87.8816,"RA_OF_ASC_NODE":69.7326,"ARG_OF_PERICENTER":76.3899,"MEAN_ANOMALY":283.7382,"EPHEMERIS_TYPE":0,"CLASSIFICATION_TYPE":"U","NORAD_CAT_ID":50479,"ELEMENT_SET_NO":999,"REV_AT_EPOCH":18357,"BSTAR":-0.00077750424,"MEAN_MOTION_DOT":-2.63e-6,"MEAN_MOTION_DDOT":0},{"OBJECT_NAME":"ONEWEB-0400","OBJECT_ID":"2021-132M","EPOCH":"2025-10-15T23:45:30.547296","MEAN_MOTION":13.18684611,"ECCENTRICITY":0.0002002,"INCLINATION":87.9227,"RA_OF_ASC_NODE":23.9349,"ARG_OF_PERICENTER":101.6537,"MEAN_ANOMALY":258.482,"EPHEMERIS_TYPE":0,"CLASSIFICATION_TYPE":"U","NORAD_CAT_ID":50480,"ELEMENT_SET_NO":999,"REV_AT_EPOCH":18942,"BSTAR":2.4664e-5,"MEAN_MOTION_DOT":2.3e-7,"MEAN_MOTION_DDOT":0},{"OBJECT_NAME":"ONEWEB-0401","OBJECT_ID":"2021-132N","EPOCH":"2025-10-15T23:00:23.120352","MEAN_MOTION":13.18684858,"ECCENTRICITY":0.0001656,"INCLINATION":87.9233,"RA_OF_ASC_NODE":23.9388,"ARG_OF_PERICENTER":105.1113,"MEAN_ANOMALY":255.0202,"EPHEMERIS_TYPE":0,"CLASSIFICATION_TYPE":"U","NORAD_CAT_ID":50481,"ELEMENT_SET_NO":999,"REV_AT_EPOCH":18942,"BSTAR":5.0019e-5,"MEAN_MOTION_DOT":3.3e-7,"MEAN_MOTION_DDOT":0},{"OBJECT_NAME":"ONEWEB-0402","OBJECT_ID":"2021-132P","EPOCH":"2025-10-15T07:34:01.327296","MEAN_MOTION":13.18684517,"ECCENTRICITY":0.0001291,"INCLINATION":87.9227,"RA_OF_ASC_NODE":24.0588,"ARG_OF_PERICENTER":117.6621,"MEAN_ANOMALY":242.4642,"EPHEMERIS_TYPE":0,"CLASSIFICATION_TYPE":"U","NORAD_CAT_ID":50482,"ELEMENT_SET_NO":999,"REV_AT_EPOCH":18936,"BSTAR":-3.9353954e-5,"MEAN_MOTION_DOT":-3.0e-8,"MEAN_MOTION_DDOT":0},{"OBJECT_NAME":"ONEWEB-0403","OBJECT_ID":"2021-132Q","EPOCH":"2025-10-16T00:33:00.474624","MEAN_MOTION":13.18683028,"ECCENTRICITY":0.0001813,"INCLINATION":87.9234,"RA_OF_ASC_NODE":23.9386,"ARG_OF_PERICENTER":97.9083,"MEAN_ANOMALY":262.2255,"EPHEMERIS_TYPE":0,"CLASSIFICATION_TYPE":"U","NORAD_CAT_ID":50483,"ELEMENT_SET_NO":999,"REV_AT_EPOCH":18941,"BSTAR":0.00022014,"MEAN_MOTION_DOT":1.0e-6,"MEAN_MOTION_DDOT":0},{"OBJECT_NAME":"ONEWEB-0404","OBJECT_ID":"2021-132R","EPOCH":"2025-10-16T02:31:58.828800","MEAN_MOTION":13.11413591,"ECCENTRICITY":0.0001562,"INCLINATION":87.8823,"RA_OF_ASC_NODE":69.6839,"ARG_OF_PERICENTER":81.9822,"MEAN_ANOMALY":278.1483,"EPHEMERIS_TYPE":0,"CLASSIFICATION_TYPE":"U","NORAD_CAT_ID":50484,"ELEMENT_SET_NO":999,"REV_AT_EPOCH":18370,"BSTAR":-0.001352,"MEAN_MOTION_DOT":-4.66e-6,"MEAN_MOTION_DDOT":0},{"OBJECT_NAME":"ONEWEB-0405","OBJECT_ID":"2021-132S","EPOCH":"2025-10-15T23:05:07.230336","MEAN_MOTION":13.1868634,"ECCENTRICITY":0.0001493,"INCLINATION":87.9233,"RA_OF_ASC_NODE":23.9354,"ARG_OF_PERICENTER":103.4055,"MEAN_ANOMALY":256.7243,"EPHEMERIS_TYPE":0,"CLASSIFICATION_TYPE":"U","NORAD_CAT_ID":50485,"ELEMENT_SET_NO":999,"REV_AT_EPOCH":18980,"BSTAR":-0.00059383,"MEAN_MOTION_DOT":-2.21e-6,"MEAN_MOTION_DDOT":0},{"OBJECT_NAME":"ONEWEB-0406","OBJECT_ID":"2021-132T","EPOCH":"2025-10-16T00:40:08.978880","MEAN_MOTION":13.18685143,"ECCENTRICITY":0.0002123,"INCLINATION":87.9233,"RA_OF_ASC_NODE":23.9463,"ARG_OF_PERICENTER":89.0817,"MEAN_ANOMALY":271.0559,"EPHEMERIS_TYPE":0,"CLASSIFICATION_TYPE":"U","NORAD_CAT_ID":50486,"ELEMENT_SET_NO":999,"REV_AT_EPOCH":18944,"BSTAR":0.0007467,"MEAN_MOTION_DOT":3.07e-6,"MEAN_MOTION_DDOT":0},{"OBJECT_NAME":"ONEWEB-0407","OBJECT_ID":"2021-132U","EPOCH":"2025-10-16T00:30:37.983744","MEAN_MOTION":13.18683011,"ECCENTRICITY":0.0001772,"INCLINATION":87.9232,"RA_OF_ASC_NODE":23.9317,"ARG_OF_PERICENTER":106.1868,"MEAN_ANOMALY":253.9459,"EPHEMERIS_TYPE":0,"CLASSIFICATION_TYPE":"U","NORAD_CAT_ID":50487,"ELEMENT_SET_NO":999,"REV_AT_EPOCH":18938,"BSTAR":0.00028044,"MEAN_MOTION_DOT":1.23e-6,"MEAN_MOTION_DDOT":0},{"OBJECT_NAME":"ONEWEB-0409","OBJECT_ID":"2021-132V","EPOCH":"2025-10-16T02:29:32.477568","MEAN_MOTION":13.11414201,"ECCENTRICITY":0.0001824,"INCLINATION":87.8834,"RA_OF_ASC_NODE":69.6452,"ARG_OF_PERICENTER":87.6764,"MEAN_ANOMALY":272.4573,"EPHEMERIS_TYPE":0,"CLASSIFICATION_TYPE":"U","NORAD_CAT_ID":50488,"ELEMENT_SET_NO":999,"REV_AT_EPOCH":18359,"BSTAR":-0.0010446,"MEAN_MOTION_DOT":-3.58e-6,"MEAN_MOTION_DDOT":0}]
